[
	{
		"id": "R2CLOUD2",
		"name": "LUCKY-7",
		"modulation": "GFSK",
		"framing": "AX25G3RUH",
		"frequency": 437525000,
		"bandwidth": 20000,
		"baudRates": [
			4800
		],
		"beaconClass": "ru.r2cloud.jradio.lucky7.Lucky7Beacon",
		"tle": {
			"line1": "LUCKY-7",
			"line2": "1 44406U 19038W   20270.83892069  .00000911  00000-0  56000-4 0  9991",
			"line3": "2 44406  97.5506 230.9888 0025725 133.8757 226.4605 15.12329156 67895"
		},
		"start": 1601607600000,
		"end": 1601611200000
	}
]